SENTINEL-6              
1 46984U 20086A   24102.16442272 -.00000037  00000+0  10260-3 0  9996
2 46984  66.0443 350.4779 0007772 271.2274  88.7851 12.80929643158240
